{"type": "FeatureCollection", "features": [ {"type": "Feature", "properties": {"norad_id": 35661, "name": "COSMOS 2251 DEB", "group": "cosmos-2251-debris", "lat": 22.46629496732646, "lon": 76.73162480248206, "alt_km": 660.2601853805263, "timestamp": "2025-12-17T15:50:10.178326+00:00", "meta": {"OBJECT_NAME": "COSMOS 2251 DEB", "OBJECT_ID": "1993-036APC", "EPOCH": "2025-12-16T12:16:23.385792", "MEAN_MOTION": 14.8663012, "ECCENTRICITY": 0.00875232, "INCLINATION": 74.0143, "RA_OF_ASC_NODE": 72.2117, "ARG_OF_PERICENTER": 175.4802, "MEAN_ANOMALY": 184.719, "EPHEMERIS_TYPE": 0, "CLASSIFICATION_TYPE": "U", "NORAD_CAT_ID": 35661, "ELEMENT_SET_NO": 999, "REV_AT_EPOCH": 87924, "BSTAR": 0.00065700451, "MEAN_MOTION_DOT": 6.22e-05, "MEAN_MOTION_DDOT": 0}, "tle": {"line1": "1 35661U 93036APC 25350.51138178  .00006220  00000+0  65700-3 0  9991", "line2": "2 35661  74.0143  72.2117 0087523 175.4802 184.7190 14.86630120879245"}}, "geometry": {"type": "Point", "coordinates": [76.73162480248206, 22.46629496732646]}}, {"type": "Feature", "properties": {"norad_id": 35663, "name": "COSMOS 2251 DEB", "group": "cosmos-2251-debris", "lat": -71.45421048519795, "lon": -6.133549650246885, "alt_km": 679.9999137282985, "timestamp": "2025-12-17T15:50:10.178335+00:00", "meta": {"OBJECT_NAME": "COSMOS 2251 DEB", "OBJECT_ID": "1993-036APE", "EPOCH": "2025-12-13T02:32:21.539904", "MEAN_MOTION": 14.65684168, "ECCENTRICITY": 0.00063461, "INCLINATION": 74.0174, "RA_OF_ASC_NODE": 123.959, "ARG_OF_PERICENTER": 198.7091, "MEAN_ANOMALY": 161.3846, "EPHEMERIS_TYPE": 0, "CLASSIFICATION_TYPE": "U", "NORAD_CAT_ID": 35663, "ELEMENT_SET_NO": 999, "REV_AT_EPOCH": 73387, "BSTAR": 0.0025042609, "MEAN_MOTION_DOT": 0.00013628, "MEAN_MOTION_DDOT": 0}, "tle": {"line1": "1 35663U 93036APE 25347.10580486  .00013628  00000+0  25043-2 0  9992", "line2": "2 35663  74.0174 123.9590 0006346 198.7091 161.3846 14.65684168733877"}}, "geometry": {"type": "Point", "coordinates": [-6.133549650246885, -71.45421048519795]}}, {"type": "Feature", "properties": {"norad_id": 35667, "name": "COSMOS 2251 DEB", "group": "cosmos-2251-debris", "lat": -27.002419459004148, "lon": -40.891399472397104, "alt_km": 685.071800980143, "timestamp": "2025-12-17T15:50:10.178346+00:00", "meta": {"OBJECT_NAME": "COSMOS 2251 DEB", "OBJECT_ID": "1993-036APJ", "EPOCH": "2025-12-14T16:10:30.846432", "MEAN_MOTION": 14.60047432, "ECCENTRICITY": 0.00195944, "INCLINATION": 74.0556, "RA_OF_ASC_NODE": 136.4208, "ARG_OF_PERICENTER": 197.4569, "MEAN_ANOMALY": 162.5926, "EPHEMERIS_TYPE": 0, "CLASSIFICATION_TYPE": "U", "NORAD_CAT_ID": 35667, "ELEMENT_SET_NO": 999, "REV_AT_EPOCH": 70831, "BSTAR": 0.0010671241, "MEAN_MOTION_DOT": 5.114e-05, "MEAN_MOTION_DDOT": 0}, "tle": {"line1": "1 35667U 93036APJ 25348.67396813  .00005114  00000+0  10671-2 0  9990", "line2": "2 35667  74.0556 136.4208 0019594 197.4569 162.5926 14.60047432708310"}}, "geometry": {"type": "Point", "coordinates": [-40.891399472397104, -27.002419459004148]}}, {"type": "Feature", "properties": {"norad_id": 35668, "name": "COSMOS 2251 DEB", "group": "cosmos-2251-debris", "lat": 31.28682347608762, "lon": -138.9055919468389, "alt_km": 665.418695356092, "timestamp": "2025-12-17T15:50:10.178356+00:00", "meta": {"OBJECT_NAME": "COSMOS 2251 DEB", "OBJECT_ID": "1993-036APK", "EPOCH": "2025-12-10T09:50:46.743936", "MEAN_MOTION": 14.63977041, "ECCENTRICITY": 0.00831886, "INCLINATION": 74.0449, "RA_OF_ASC_NODE": 224.9926, "ARG_OF_PERICENTER": 330.6481, "MEAN_ANOMALY": 29.0026, "EPHEMERIS_TYPE": 0, "CLASSIFICATION_TYPE": "U", "NORAD_CAT_ID": 35668, "ELEMENT_SET_NO": 999, "REV_AT_EPOCH": 87613, "BSTAR": 0.00039699898, "MEAN_MOTION_DOT": 2.154e-05, "MEAN_MOTION_DDOT": 0}, "tle": {"line1": "1 35668U 93036APK 25344.41026324  .00002154  00000+0  39700-3 0  9992", "line2": "2 35668  74.0449 224.9926 0083188 330.6481  29.0026 14.63977041876131"}}, "geometry": {"type": "Point", "coordinates": [-138.9055919468389, 31.28682347608762]}}, {"type": "Feature", "properties": {"norad_id": 35669, "name": "COSMOS 2251 DEB", "group": "cosmos-2251-debris", "lat": -70.43954607466686, "lon": 96.77289083536577, "alt_km": 779.4699203106775, "timestamp": "2025-12-17T15:50:10.178366+00:00", "meta": {"OBJECT_NAME": "COSMOS 2251 DEB", "OBJECT_ID": "1993-036APL", "EPOCH": "2025-12-16T04:49:40.984320", "MEAN_MOTION": 13.57162572, "ECCENTRICITY": 0.03877654, "INCLINATION": 73.8585, "RA_OF_ASC_NODE": 153.7447, "ARG_OF_PERICENTER": 264.9065, "MEAN_ANOMALY": 90.7689, "EPHEMERIS_TYPE": 0, "CLASSIFICATION_TYPE": "U", "NORAD_CAT_ID": 35669, "ELEMENT_SET_NO": 999, "REV_AT_EPOCH": 60836, "BSTAR": 0.0008243538, "MEAN_MOTION_DOT": 9.32e-06, "MEAN_MOTION_DDOT": 0}, "tle": {"line1": "1 35669U 93036APL 25350.20116880  .00000932  00000+0  82435-3 0  9999", "line2": "2 35669  73.8585 153.7447 0387765 264.9065  90.7689 13.57162572608367"}}, "geometry": {"type": "Point", "coordinates": [96.77289083536577, -70.43954607466686]}}, {"type": "Feature", "properties": {"norad_id": 35670, "name": "COSMOS 2251 DEB", "group": "cosmos-2251-debris", "lat": 46.79573524642936, "lon": -143.41868342296934, "alt_km": 592.6165504553992, "timestamp": "2025-12-17T15:50:10.178376+00:00", "meta": {"OBJECT_NAME": "COSMOS 2251 DEB", "OBJECT_ID": "1993-036APM", "EPOCH": "2025-12-14T21:21:55.582560", "MEAN_MOTION": 14.93987644, "ECCENTRICITY": 0.0037863, "INCLINATION": 73.8951, "RA_OF_ASC_NODE": 60.1197, "ARG_OF_PERICENTER": 20.3241, "MEAN_ANOMALY": 339.9438, "EPHEMERIS_TYPE": 0, "CLASSIFICATION_TYPE": "U", "NORAD_CAT_ID": 35670, "ELEMENT_SET_NO": 999, "REV_AT_EPOCH": 87759, "BSTAR": 0.00068268578, "MEAN_MOTION_DOT": 7.347e-05, "MEAN_MOTION_DDOT": 0}, "tle": {"line1": "1 35670U 93036APM 25348.89022665  .00007347  00000+0  68269-3 0  9996", "line2": "2 35670  73.8951  60.1197 0037863  20.3241 339.9438 14.93987644877599"}}, "geometry": {"type": "Point", "coordinates": [-143.41868342296934, 46.79573524642936]}}, {"type": "Feature", "properties": {"norad_id": 35671, "name": "COSMOS 2251 DEB", "group": "cosmos-2251-debris", "lat": 55.51465809109064, "lon": -134.57056716519594, "alt_km": 741.1478534547987, "timestamp": "2025-12-17T15:50:10.178387+00:00", "meta": {"OBJECT_NAME": "COSMOS 2251 DEB", "OBJECT_ID": "1993-036APN", "EPOCH": "2025-12-16T23:31:03.510336", "MEAN_MOTION": 14.4835599, "ECCENTRICITY": 0.00415416, "INCLINATION": 74.0175, "RA_OF_ASC_NODE": 71.3641, "ARG_OF_PERICENTER": 244.8246, "MEAN_ANOMALY": 292.6764, "EPHEMERIS_TYPE": 0, "CLASSIFICATION_TYPE": "U", "NORAD_CAT_ID": 35671, "ELEMENT_SET_NO": 999, "REV_AT_EPOCH": 86824, "BSTAR": 0.00019011227, "MEAN_MOTION_DOT": 6.9e-06, "MEAN_MOTION_DDOT": 0}, "tle": {"line1": "1 35671U 93036APN 25350.97990174  .00000690  00000+0  19011-3 0  9993", "line2": "2 35671  74.0175  71.3641 0041541 244.8246 292.6764 14.48355990868247"}}, "geometry": {"type": "Point", "coordinates": [-134.57056716519594, 55.51465809109064]}}, {"type": "Feature", "properties": {"norad_id": 35674, "name": "COSMOS 2251 DEB", "group": "cosmos-2251-debris", "lat": 69.85321022875281, "lon": 76.04709782303816, "alt_km": 729.0741530456589, "timestamp": "2025-12-17T15:50:10.178397+00:00", "meta": {"OBJECT_NAME": "COSMOS 2251 DEB", "OBJECT_ID": "1993-036APR", "EPOCH": "2025-12-17T07:06:57.455712", "MEAN_MOTION": 14.54280117, "ECCENTRICITY": 0.00961628, "INCLINATION": 74.0599, "RA_OF_ASC_NODE": 307.9038, "ARG_OF_PERICENTER": 351.6495, "MEAN_ANOMALY": 8.3061, "EPHEMERIS_TYPE": 0, "CLASSIFICATION_TYPE": "U", "NORAD_CAT_ID": 35674, "ELEMENT_SET_NO": 999, "REV_AT_EPOCH": 86177, "BSTAR": 0.001519305, "MEAN_MOTION_DOT": 6.829e-05, "MEAN_MOTION_DDOT": 0}, "tle": {"line1": "1 35674U 93036APR 25351.29649833  .00006829  00000+0  15193-2 0  9991", "line2": "2 35674  74.0599 307.9038 0096162 351.6495   8.3061 14.54280117861778"}}, "geometry": {"type": "Point", "coordinates": [76.04709782303816, 69.85321022875281]}}, {"type": "Feature", "properties": {"norad_id": 35701, "name": "COSMOS 2251 DEB", "group": "cosmos-2251-debris", "lat": -8.757056828077772, "lon": 116.64369076069543, "alt_km": 814.9173631417452, "timestamp": "2025-12-17T15:50:10.178407+00:00", "meta": {"OBJECT_NAME": "COSMOS 2251 DEB", "OBJECT_ID": "1993-036APW", "EPOCH": "2025-12-06T05:57:57.623904", "MEAN_MOTION": 13.80843435, "ECCENTRICITY": 0.02897209, "INCLINATION": 74.0028, "RA_OF_ASC_NODE": 313.2955, "ARG_OF_PERICENTER": 164.0681, "MEAN_ANOMALY": 196.98, "EPHEMERIS_TYPE": 0, "CLASSIFICATION_TYPE": "U", "NORAD_CAT_ID": 35701, "ELEMENT_SET_NO": 999, "REV_AT_EPOCH": 62069, "BSTAR": 0.0021223911, "MEAN_MOTION_DOT": 3.05e-05, "MEAN_MOTION_DDOT": 0}, "tle": {"line1": "1 35701U 93036APW 25340.24858361  .00003050  00000+0  21224-2 0  9998", "line2": "2 35701  74.0028 313.2955 0289720 164.0681 196.9800 13.80843435620696"}}, "geometry": {"type": "Point", "coordinates": [116.64369076069543, -8.757056828077772]}}, {"type": "Feature", "properties": {"norad_id": 35703, "name": "COSMOS 2251 DEB", "group": "cosmos-2251-debris", "lat": -18.182181633038162, "lon": 27.526956052815724, "alt_km": 623.7677528113672, "timestamp": "2025-12-17T15:50:10.178418+00:00", "meta": {"OBJECT_NAME": "COSMOS 2251 DEB", "OBJECT_ID": "1993-036APY", "EPOCH": "2025-12-15T20:25:28.556544", "MEAN_MOTION": 14.90392841, "ECCENTRICITY": 0.00646354, "INCLINATION": 74.0432, "RA_OF_ASC_NODE": 36.5378, "ARG_OF_PERICENTER": 105.3877, "MEAN_ANOMALY": 255.4458, "EPHEMERIS_TYPE": 0, "CLASSIFICATION_TYPE": "U", "NORAD_CAT_ID": 35703, "ELEMENT_SET_NO": 999, "REV_AT_EPOCH": 66662, "BSTAR": 0.00039261957, "MEAN_MOTION_DOT": 3.941e-05, "MEAN_MOTION_DDOT": 0}, "tle": {"line1": "1 35703U 93036APY 25349.85102496  .00003941  00000+0  39262-3 0  9998", "line2": "2 35703  74.0432  36.5378 0064635 105.3877 255.4458 14.90392841666627"}}, "geometry": {"type": "Point", "coordinates": [27.526956052815724, -18.182181633038162]}}]}